#dP2019 11 21  0  0  0.00000000      96 __u+U ITR00 FIT  IAC
## 2080 345600.00000000   900.00000000 58808 0.0000000000000
+  104   C06C07C08C09C10C11C13C14C16C19C20C21C22C23C24C25C26
+        C27C28C29C30C32C33C34C35C36C37E01E02E03E04E05E07E08
+        E09E11E12E13E14E15E18E19E21E24E25E26E27E30E31E33E36
+        G01G02G03G04G05G06G07G08G09G10G11G12G13G14G15G16G17
+        G18G19G20G21G22G23G24G25G26G27G28G29G30G31G32R01R02
+        R03R05R07R08R09R11R12R13R14R15R16R17R18R19R20R21R23
+        R24R26  0  0  0  0  0  0  0  0  0  0  0  0  0  0  0
++         9  9  8  8  8  7  8  8  8  8  8  8  8  7  8  8  8
++         7  7  8  8  8  8  8  9  8  8  5  4  5  5  5  4  4
++         5  6  5  5  5  4  4  5  5  5  4  4  4  4  5  5  4
++         4  4  4  4  4  3  3  4  3  4  4  4  4  4  4  3  3
++         4  3  4  4  4  3  4  4  3  4  4  3  4  3  4  6  6
++         6  5  5  5  5  5  5  6  5  5  6  6  5  6  6  5  5
++         0  8  0  0  0  0  0  0  0  0  0  0  0  0  0  0  0
%c M  cc GPS ccc cccc cccc cccc cccc ccccc ccccc ccccc ccccc
%c cc cc ccc ccc cccc cccc cccc cccc ccccc ccccc ccccc ccccc
%f  0.0000000  0.000000000  0.00000000000  0.000000000000000
%f  0.0000000  0.000000000  0.00000000000  0.000000000000000
%i    0    0    0    0      0      0      0      0         0
%i    0    0    0    0      0      0      0      0         0
/* INFORMATION & ANALYSIS CENTER (IAC)      ULTRA-RAPID DATA
/* S/V CLOCKS ARE ALIGNED TO GNSS TIME                      
/* G:C1WC2W R:C1PC2P E:C1XC5X C:C2IC6I J:C1CC2S             
/* PCV:IGS14_2076 OL/AL:FES2004  NONE     YN ORB:CoN CLK:CoN
*  2019 11 21  2 15  0.00000000
PC06 -12489.717546  37349.814636  15932.899528    311.854132
PC07 -13745.408211  22107.507442 -32994.356419 999999.999999
PC08 -25609.648835  27592.402715  18739.110223    -37.762731
PC09  -2559.309042  42271.269682   -445.009983    130.864471
PC10   3473.560449  28582.095566 -30510.239757   -386.110453
PC11  17490.161008 -11919.509023  18284.246964    -14.389225
PC13 -10654.101848  28518.856770  29120.241752    116.695664
PC14  18170.403235  -1391.503265 -21098.689368 -86663.764115
PC16  -9683.700512  38977.192219  13156.745047   -925.987019
PC19 -12167.268660  10335.085821  22903.650937    250.357355
PC20 -21296.843563  -7418.893838  16460.900792   -316.858930
PC21  17982.065879  21327.227741    -27.037001    167.306287
PC22   4156.254388  22389.834261  16106.534337   -397.403708
PC23   4579.746177 -16532.150364  22020.359595   -877.511205
PC24  27246.878395    -29.853621  -6092.183911   -879.741742
PC25  22115.837010 -12490.484046  11581.777671   -420.968519
PC26  16754.199022  10870.334227 -19503.802598    467.948475
PC27  -7791.957452 -17940.907903 -19908.576737    228.727974
PC28   5960.608298 -26614.088602  -5937.157094    219.833263
PC29 -15393.531318  20293.667641 -11397.146273    148.946490
PC30 -16833.737838   1564.998675 -22200.341250    227.667735
PC32 -18150.776959 -21201.138007     38.312919   -865.529473
PC33  12172.372514 -10367.355676 -22873.964790   -588.674861
PC34  16946.982201  -1847.264685  22090.976007   -249.858730
PC35  -5110.971191  26820.433472   5843.323807   -575.011685
PC36 -22526.741498  11863.593151 -11400.076483 999999.999999
PC37 -15917.813248 -11555.007710  19814.057954   -781.184060
PE01  27816.217571   9473.782845  -3562.434128   -736.131232
PE02 -27828.197652  -9440.630246   3510.911448     93.326100
PE03 -17971.324017 -13828.167666  19026.685669   -235.290823
PE04  15446.922793  -7960.059343 -23966.024438   -409.778973
PE05  -9984.804704 -27716.940169   2888.382636   -429.511772
PE07  -3788.634994  25322.945824  14840.400163   -302.014083
PE08 -15183.348735   8204.720741  24041.878088   6260.255201
PE09   3469.593495 -25376.881421 -14855.005231   6246.284665
PE11  14708.040983 -24066.897536  -8971.148632     69.337848
PE12  23483.733590 -14756.780023  10337.342718   6089.815246
PE13 -14750.125447  24097.337213   8826.545774    395.588990
PE14  14904.892500  -1056.964070  17962.285688   -801.921164
PE15 -23358.085309  15116.282077 -10082.482027    887.101577
PE18 -20773.940266     38.407732 -25117.075670   -897.061073
PE19  17527.146879  15887.420412 -17797.368863     -2.811436
PE21  13988.094336  17018.129680 -19765.669841   -567.033604
PE24   8204.361720 -14662.441273  24367.708523   5756.549693
PE25 -13884.999505 -17040.356898  19836.289434   -496.334747
PE26   2699.478199  18955.323126  22576.735887   3853.437438
PE27  -8154.335422  14641.840255 -24387.954822    341.399839
PE30 -25471.419290   3553.613897 -14645.545780   4368.102851
PE31  25432.188277  -3694.445357  14700.407787   -470.579777
PE33  18285.565886   2753.229972  23123.403553   -471.740074
PE36  -2508.859459 -18965.694628 -22580.270857    634.213690
PG01   5993.369991 -17656.470445 -18988.729709   -204.132989
PG02 -21735.737503  15101.510892   1767.839763   -350.908389
PG03  -6144.642045 -18558.159282 -18080.637748    -39.895553
PG04  -6624.814051 -23023.902433  11452.615161    -11.295575
PG05 -14301.923242   8667.791113  20536.937944     -3.711808
PG06 -23709.795974   4273.364771 -11166.331648   -130.065645
PG07 -11547.797226 -11148.668484  21505.468957   -153.213145
PG08   6111.020763 -24341.215987   8378.811718    -14.067132
PG09  -7883.545608 -22549.170364  11547.446864    -88.607154
PG10  23908.653363  10839.787779  -4706.543826   -142.538915
PG11   4428.943374 -23271.162487 -12820.872454   -442.121847
PG12     77.707465  17056.339756 -20623.565778    181.382763
PG13 -12761.960736  18311.623219  14218.421114    -31.564707
PG14  15191.933275  -5397.061799 -20750.150619    -49.325187
PG15  -3551.752940  25059.857538   7065.474199   -271.205736
PG16  16210.404016  -4930.726568  20377.491392    -95.193018
PG17 -13626.297516  -6902.650766 -21315.361344    166.720293
PG18  13282.246715 -19057.074797 -13295.059292    101.530655
PG19 -15071.791492   1366.026300 -22122.468918   -236.967482
PG20  21518.460223  14561.332099   5882.615449    527.505385
PG21  14663.160106   8639.644004  21138.966492    -82.895437
PG22   1685.303819 -16443.184885 -20588.694558   -773.001033
PG23  -1835.647159 -26168.861449   2816.862650   -154.312437
PG24  -7229.458709  19067.816547 -17002.721085     -5.174699
PG25  14701.382552  18870.690162 -12033.200311    -17.283578
PG26  22438.255243   1116.889944  14306.255390     88.744676
PG27  12150.470444 -15670.545410  17400.219516   -126.312027
PG28 -22572.469967 -12592.173165  -5215.642195    754.200328
PG29   4990.055251  23652.791366  10946.854722     38.836871
PG30 -20736.350857  -3197.727375  16430.841406    -88.436317
PG31  24685.694189  -5445.161694  -8897.442594     -4.580765
PG32  14809.410732   5958.551724 -21186.504086    131.473629
PR01   5051.440801  21275.847110  13115.744964     52.974957
PR02  14768.397270  19501.632151  -7299.665611    398.728883
PR03  14175.861890   5274.853623 -20522.757425      5.171922
PR05  -6491.810937 -22115.123504 -10902.595068     39.789373
PR07 -13978.277614  -4638.660429  20841.765630    -29.703719
PR08  -5438.176883  11785.211073  22005.289347     14.301188
PR09 -21049.087862  -6552.080545  12909.190187    102.167838
PR11 -16612.321588   8261.827765 -17508.194277     19.297508
PR12    990.617166  10882.917169 -23016.936558     81.024705
PR13  19057.385652   7291.100834 -15317.869712    -31.246522
PR14  25466.062077   -281.410347   1342.614631     45.277615
PR15  17310.288960  -7816.309200  17054.232723    104.831040
PR16  -1393.314728 -11045.284525  22929.608258      0.142738
PR17  14515.899286  -6401.353600  20002.587781    277.501774
PR18  15207.713418 -19350.598628   6631.672652     15.220000
PR19   8486.117673 -21812.337788 -10153.084925    -64.989891
PR20  -4985.409702 -10877.947323 -22510.751653   -396.749445
PR21 -14660.000759   7113.919217 -19607.798526    -86.576158
PR23  -4134.260150  19982.830815  15297.066430    268.132839
PR24   6627.510513   8911.331481  22943.180000 999999.999999
PR26  -2693.141769 -13905.699580 -21207.999032     10.024611
EOF
